OBJECT_NAME,OBJECT_ID,EPOCH,MEAN_MOTION,ECCENTRICITY,INCLINATION,RA_OF_ASC_NODE,ARG_OF_PERICENTER,MEAN_ANOMALY,EPHEMERIS_TYPE,CLASSIFICATION_TYPE,NORAD_CAT_ID,ELEMENT_SET_NO,REV_AT_EPOCH,BSTAR,MEAN_MOTION_DOT,MEAN_MOTION_DDOT
SKYSAT-C4,2016-058B,2026-07-23T12:07:23.884320,15.49650272,.0003569,96.9177,224.7807,107.7824,252.3818,0,U,41771,999,55109,.31709E-3,.17484E-3,0
SKYSAT-C5,2016-058C,2026-07-23T02:32:02.213088,15.33797689,.0003402,97.0456,243.1260,142.5858,217.5623,0,U,41772,999,54925,.22409363E-3,.7252E-4,0
SKYSAT-C2,2016-058D,2026-07-23T07:54:04.473216,15.42821230,.00006619,97.0165,225.0801,273.3925,86.7248,0,U,41773,999,55062,.27930384E-3,.12159E-3,0
SKYSAT-C3,2016-058E,2026-07-23T13:00:11.386944,15.54002189,.0002886,96.9002,234.0233,123.0560,237.0972,0,U,41774,999,55175,.37171E-3,.23979E-3,0
ALSAT-1B,2016-059C,2026-07-23T20:55:51.471264,14.72300219,.0010787,97.7767,212.0539,105.5125,254.7275,0,U,41785,999,52597,.10836E-3,.638E-5,0
PATHFINDER 1,2016-059E,2026-07-23T19:33:51.099264,14.67701166,.0029969,97.8182,202.4411,89.5624,270.9015,0,U,41787,999,52508,.1066E-3,.564E-5,0
SCATSAT 1,2016-059H,2026-07-23T14:20:24.598752,14.79603582,.00557,98.1171,268.7361,129.9347,230.6778,0,U,41790,999,10697,.16099E-3,.1181E-4,0
GOKTURK 1A,2016-073A,2026-07-23T20:11:51.391392,14.62797983,.000143,98.1200,98.9333,84.0563,276.0802,0,U,41875,999,51418,.931E-4,.428E-5,0
RESOURCESAT-2A,2016-074A,2026-07-23T19:27:00.351936,14.21610569,.000187,98.7512,278.0125,7.5055,352.6150,0,U,41877,999,49950,.63346E-4,.95E-6,0
CARTOSAT-2D,2017-008A,2026-07-23T10:46:43.190400,15.19329256,.0006506,97.4087,263.0730,117.0345,243.1554,0,U,41948,999,52308,.19096E-3,.3968E-4,0
SENTINEL-2B,2017-013A,2026-07-23T20:25:15.583584,14.30816223,.0001239,98.5677,279.1051,92.2066,267.9259,0,U,42063,999,48988,-.23985E-4,-.106E-5,0
CARTOSAT-2E,2017-036C,2026-07-23T14:22:12.932256,15.19302949,.0004182,97.4256,263.7967,159.7710,200.3691,0,U,42767,999,50367,.23677E-3,.4931E-4,0
FORMOSAT-5,2017-049A,2026-07-23T19:26:41.211744,14.50894505,.0010817,98.2240,279.3040,336.5401,23.5299,0,U,42920,999,47198,.39269E-4,.111E-5,0
SENTINEL-5P,2017-064A,2026-07-23T08:40:01.384032,14.19524290,.0001206,98.7929,146.2368,92.3775,267.7539,0,U,42969,999,45469,.35683E-4,.31E-6,0
SKYSAT-C11,2017-068A,2026-07-23T09:22:50.919168,15.59689712,.0001508,97.4380,354.8568,147.1025,213.0325,0,U,42987,999,48888,.38262E-3,.30498E-3,0
SKYSAT-C10,2017-068B,2026-07-23T19:10:56.642016,15.35247695,.0001562,97.4540,342.0280,110.3852,249.7559,0,U,42988,999,48797,.27945E-3,.9483E-4,0
SKYSAT-C9,2017-068C,2026-07-23T07:40:29.191584,15.42362279,.0007944,97.4460,342.8295,17.0072,343.1440,0,U,42989,999,48832,.29466E-3,.12642E-3,0
SKYSAT-C8,2017-068D,2026-07-23T07:46:18.740928,15.37611067,.0001312,97.4557,341.4865,107.4214,252.7174,0,U,42990,999,48786,.28469E-3,.10428E-3,0
SKYSAT-C7,2017-068E,2026-07-23T07:38:44.653632,15.37559306,.0004958,97.4568,342.4736,351.7605,8.3557,0,U,42991,999,48792,.28091E-3,.10274E-3,0
SKYSAT-C6,2017-068F,2026-07-23T19:15:20.111040,15.34282201,.0004765,97.4606,342.7790,67.6027,292.5720,0,U,42992,999,48793,.26301E-3,.8652E-4,0
CARTOSAT-2F,2018-004A,2026-07-23T21:29:05.152128,15.19223248,.0002853,97.4771,264.1663,119.6299,240.5220,0,U,43111,999,47290,.20146E-3,.4174E-4,0
GAOFEN-1 02,2018-031A,2026-07-23T19:50:42.724032,14.76480812,.0001601,98.0508,267.2476,231.0158,129.0909,0,U,43259,999,44810,.11027E-3,.716E-5,0
GAOFEN-1 03,2018-031B,2026-07-23T20:56:50.320032,14.76471568,.0001718,98.0501,267.1475,346.7975,13.3190,0,U,43260,999,44810,.99666E-4,.642E-5,0
GAOFEN-1 04,2018-031D,2026-07-23T20:22:00.100992,14.76444748,.0000786,98.0509,267.3185,58.5313,301.5973,0,U,43262,999,44809,.31433E-4,.167E-5,0
SENTINEL-3B,2018-039A,2026-07-23T10:43:27.107328,14.26738084,.0001317,98.6229,271.4552,117.9651,242.1662,0,U,43437,999,42929,.48155E-4,.73E-6,0
GAOFEN-5 01,2018-043A,2026-07-23T20:22:05.831040,14.60627608,.0001556,98.4599,177.2109,12.6635,347.4604,0,U,43461,999,43704,.66747E-4,.276E-5,0
GAOFEN-6,2018-048A,2026-07-23T20:54:59.010912,14.76390947,.0011882,98.0952,267.5933,57.3651,302.8703,0,U,43484,999,43880,.10185E-3,.656E-5,0
GAOFEN-11 01,2018-063A,2026-07-23T20:02:02.995296,15.56270542,.0004186,97.1271,271.6305,168.3194,191.8159,0,U,43585,999,44604,.18365E-3,.12807E-3,0
ICESAT-2,2018-070A,2026-07-23T19:46:07.908096,15.28291123,.0004497,92.0086,300.8799,38.6814,321.4757,0,U,43613,999,43805,.33786E-3,.9311E-4,0
HYSIS,2018-096A,2026-07-23T19:42:25.386624,14.78624783,.0001665,97.9822,271.2781,72.9552,287.1841,0,U,43719,999,41283,.18733E-3,.132E-4,0
KAZSTSAT,2018-099AB,2026-07-23T12:31:53.006592,14.99961770,.0007209,97.4301,234.8148,305.3153,54.7397,0,U,43783,999,41675,.25859E-4,.265E-5,0
